      2.10          N: GNSS NAV DATA                        RINEX VERSION / TYPE
fic2rin                                 06/08/2022 00:17:40 PGM / RUN BY / DATE
                                                            END OF HEADER
8  22  6  7  1 59 44.0 -.711004249752D-04 -.147792889038D-11  .000000000000D+00
     .710000000000D+02  .181562500000D+02  .420410368922D-08  .189615001568D+01
     .990927219391D-06  .744351127651D-02  .875815749168D-05  .515377622032D+04
     .179984000000D+06 -.670552253723D-07  .128731496236D+01  .279396772385D-07
     .963308862412D+00  .212187500000D+03  .173423374820D+00 -.795497421375D-08
    -.275368613065D-09  .100000000000D+01  .221300000000D+04  .000000000000D+00
     .240000000000D+01  .000000000000D+00  .512227416039D-08  .710000000000D+02
     .172800000000D+06  .400000000000D+01
13 22  6  7  2  0  0.0  .325330998749D-03  .693489710102D-11  .000000000000D+00
     .900000000000D+01 -.352187500000D+02  .447268630534D-08  .150154285578D+01
    -.181607902050D-05  .597230938729D-02  .977702438831D-05  .515367762947D+04
     .180000000000D+06 -.169500708580D-06 -.169745423072D+01  .577419996262D-07
     .968397656598D+00  .197093750000D+03  .915101615530D+00 -.793568769610D-08
     .335728270144D-10  .100000000000D+01  .221300000000D+04  .000000000000D+00
     .240000000000D+01  .000000000000D+00 -.116415321827D-07  .900000000000D+01
     .172800000000D+06  .400000000000D+01
27 22  6  7  2  0  0.0  .212985090911D-03  .397903932026D-11  .000000000000D+00
     .110000000000D+02  .228437500000D+02  .402373903345D-08  .194982251238D+01
     .113993883133D-05  .105461103376D-01  .893510878086D-05  .515366022873D+04
     .180000000000D+06 -.204890966415D-06  .130767136064D+01 -.670552253723D-07
     .972046576590D+00  .212906250000D+03  .687119790577D+00 -.790318634229D-08
    -.208580116771D-09  .100000000000D+01  .221300000000D+04  .000000000000D+00
     .240000000000D+01  .000000000000D+00  .186264514923D-08  .110000000000D+02
     .172800000000D+06  .400000000000D+01
26 22  6  7  2  0  0.0  .210716854781D-03  .250111042988D-11  .000000000000D+00
     .240000000000D+02  .217812500000D+02  .512557064345D-08 -.252343175938D+01
     .114180147648D-05  .694040604867D-02  .609830021858D-05  .515375591660D+04
     .180000000000D+06 -.167638063431D-07  .205722631070D+00 -.353902578354D-07
     .937725356894D+00  .250156250000D+03  .388396823955D+00 -.829820279631D-08
    -.170007081477D-09  .100000000000D+01  .221300000000D+04  .000000000000D+00
     .240000000000D+01  .000000000000D+00  .698491930962D-08  .240000000000D+02
     .172800000000D+06  .400000000000D+01
16 22  6  7  2  0  0.0 -.507055781782D-03 -.284217094304D-11  .000000000000D+00
     .850000000000D+02  .188125000000D+02  .434232373236D-08  .288318627996D+01
     .821426510811D-06  .127086024731D-01  .643916428089D-05  .515365672302D+04
     .180000000000D+06  .242143869400D-07  .351361730301D+00 -.126659870148D-06
     .969280211669D+00  .259031250000D+03  .730045995357D+00 -.782175437889D-08
    -.263225250103D-09  .100000000000D+01  .221300000000D+04  .000000000000D+00
     .240000000000D+01  .000000000000D+00 -.102445483208D-07  .850000000000D+02
     .172800000000D+06  .400000000000D+01
12 22  6  7  2  0  0.0 -.227215234190D-03 -.591171556152D-11  .000000000000D+00
     .890000000000D+02  .186562500000D+02  .438696844913D-08 -.154928195571D+01
     .100024044514D-05  .862469687127D-02  .669620931149D-05  .515378485298D+04
     .180000000000D+06  .158324837685D-06  .332823635326D+00  .191852450371D-06
     .969398159439D+00  .254843750000D+03  .130361065115D+01 -.795961726429D-08
    -.342514267094D-09  .100000000000D+01  .221300000000D+04  .000000000000D+00
     .240000000000D+01  .000000000000D+00 -.125728547573D-07  .890000000000D+02
     .172800000000D+06  .400000000000D+01
15 22  6  7  2  0  0.0 -.552330166101D-04  .295585778076D-11  .000000000000D+00
     .450000000000D+02 -.567500000000D+02  .547879964257D-08  .942805771485D+00
    -.276044011116D-05  .140963596059D-01  .916793942451D-05  .515379931259D+04
     .180000000000D+06 -.171363353729D-06 -.196116391353D+01  .135973095894D-06
     .930136466432D+00  .192125000000D+03  .109733801994D+01 -.865536053051D-08
    -.112147528538D-09  .100000000000D+01  .221300000000D+04  .000000000000D+00
     .240000000000D+01  .000000000000D+00 -.107102096081D-07  .450000000000D+02
     .172800000000D+06  .400000000000D+01
21 22  6  7  2  0  0.0  .161297619343D-03  .000000000000D+00  .000000000000D+00
     .360000000000D+02  .471875000000D+02  .439232581514D-08  .205926679762D+01
     .235624611378D-05  .242701318348D-01  .585243105888D-05  .515374834824D+04
     .180000000000D+06  .309199094772D-06  .227609110145D+01  .707805156708D-07
     .960261933210D+00  .261843750000D+03 -.940814083129D+00 -.784389815841D-08
     .271439877989D-10  .100000000000D+01  .221300000000D+04  .000000000000D+00
     .240000000000D+01  .000000000000D+00 -.102445483208D-07  .360000000000D+02
     .172800000000D+06  .400000000000D+01
31 22  6  7  2  0  0.0 -.180768780410D-03 -.159161572810D-11  .000000000000D+00
     .750000000000D+02  .247812500000D+02  .471876798420D-08 -.141083368986D+01
     .126846134663D-05  .104330352042D-01  .830367207527D-05  .515374751472D+04
     .180000000000D+06  .135973095894D-06 -.761577387852D+00 -.158324837685D-06
     .954891321022D+00  .216343750000D+03  .393628802711D+00 -.798997567170D-08
     .186079179516D-09  .100000000000D+01  .221300000000D+04  .000000000000D+00
     .240000000000D+01  .000000000000D+00 -.135041773319D-07  .750000000000D+02
     .172800000000D+06  .400000000000D+01
32 22  6  7  2  0  0.0 -.145052559674D-03 -.920863385545D-11  .000000000000D+00
     .910000000000D+02 -.683437500000D+02  .458911972669D-08  .261747804625D+01
    -.358000397682D-05  .599913112819D-02  .989809632301D-05  .515360901260D+04
     .180000000000D+06 -.316649675369D-07 -.184045520150D+01 -.949949026108D-07
     .957942308359D+00  .184812500000D+03 -.228063662199D+01 -.789425739894D-08
    -.614311302817D-10  .100000000000D+01  .221300000000D+04  .000000000000D+00
     .240000000000D+01  .000000000000D+00  .465661287308D-09  .910000000000D+02
     .172800000000D+06  .400000000000D+01
30 22  6  7  2  0  0.0 -.530573539436D-03 -.125055521494D-11  .000000000000D+00
     .890000000000D+02  .253750000000D+02  .513307095587D-08 -.968403572639D+00
     .119581818581D-05  .587677909061D-02  .793486833572D-05  .515375894165D+04
     .180000000000D+06  .111758708954D-06 -.768646503521D+00 -.149011611938D-07
     .935839212225D+00  .213093750000D+03 -.267887093073D+01 -.828463080241D-08
     .325013538118D-10  .100000000000D+01  .221300000000D+04  .000000000000D+00
     .240000000000D+01  .000000000000D+00  .372529029846D-08  .890000000000D+02
     .172800000000D+06  .400000000000D+01
22 22  6  7  2  0  0.0  .271609984338D-03  .625277607469D-11  .000000000000D+00
     .870000000000D+02 -.621250000000D+02  .449125850752D-08  .178824833659D+01
    -.343844294548D-05  .133974931668D-01  .100638717413D-04  .515370406914D+04
     .180000000000D+06 -.949949026108D-07 -.174988465877D+01 -.333413481712D-06
     .961141284490D+00  .187093750000D+03 -.184852720018D+01 -.789461455667D-08
    -.571452374714D-11  .100000000000D+01  .221300000000D+04  .000000000000D+00
     .340000000000D+01  .000000000000D+00 -.838190317154D-08  .870000000000D+02
     .172800000000D+06  .400000000000D+01
19 22  6  7  2  0  0.0  .167360063642D-03  .500222085975D-11  .000000000000D+00
     .640000000000D+02  .373125000000D+02  .381087302387D-08 -.202749619461D+01
     .230036675930D-05  .927642011084D-02  .805966556072D-05  .515370761299D+04
     .180000000000D+06 -.447034835815D-07  .141574621704D+01  .197440385818D-06
     .977350504583D+00  .232375000000D+03  .207971056868D+01 -.773889378456D-08
    -.200008331150D-10  .100000000000D+01  .221300000000D+04  .000000000000D+00
     .240000000000D+01  .000000000000D+00 -.158324837685D-07  .640000000000D+02
     .172800000000D+06  .400000000000D+01
11 22  6  7  2  0  0.0 -.170432031155D-04  .318323145621D-11  .000000000000D+00
     .300000000000D+01  .300937500000D+02  .449340145392D-08  .191230192888D+01
     .131689012051D-05  .424609286711D-03  .524520874023D-05  .515358760071D+04
     .180000000000D+06  .000000000000D+00  .241119220781D+01  .279396772385D-07
     .963109971385D+00  .278406250000D+03  .283013533619D+01 -.818105505950D-08
     .252867675811D-09  .100000000000D+01  .221300000000D+04  .000000000000D+00
     .240000000000D+01  .000000000000D+00 -.838190317154D-08  .515000000000D+03
     .172800000000D+06  .400000000000D+01
25 22  6  7  2  0  0.0  .334250275046D-03  .466116034659D-11  .000000000000D+00
     .520000000000D+02  .208125000000D+02  .460483466699D-08 -.184448672285D+01
     .111944973469D-05  .104799214751D-01  .648386776447D-05  .515365964699D+04
     .180000000000D+06  .173225998878D-06  .254774569778D+00 -.121071934700D-06
     .956899451114D+00  .253093750000D+03  .100512919329D+01 -.795425989828D-08
    -.257867884090D-09  .100000000000D+01  .221300000000D+04  .000000000000D+00
     .240000000000D+01  .000000000000D+00  .558793544769D-08  .520000000000D+02
     .172800000000D+06  .400000000000D+01
23 22  6  7  2  0  0.0 -.265692360699D-04 -.216004991671D-11  .000000000000D+00
     .237000000000D+03 -.535312500000D+02  .460590614019D-08 -.100940169089D+01
    -.276602804661D-05  .220218417235D-02  .501237809658D-05  .515371167374D+04
     .180000000000D+06  .372529029846D-08 -.290774046608D+01  .316649675369D-07
     .969144268543D+00  .286281250000D+03  .299562469915D+01 -.824641492485D-08
     .971469037013D-10  .100000000000D+01  .221300000000D+04  .000000000000D+00
     .240000000000D+01  .000000000000D+00 -.838190317154D-08  .237000000000D+03
     .172800000000D+06  .400000000000D+01
